*******************************************************************************
 Revised: Dec 14, 2021            STEREO-A Spacecraft                      -234
                              http://stereo.gsfc.nasa.gov/

 BACKGROUND:
  STEREO (Solar TErrestrial RElations Observatory) is the third mission in 
  NASA's Solar Terrestrial Probes program (STP). This two-year mission will use
  two nearly identical space-based observatories - one ahead of Earth in its 
  orbit, the other trailing behind - to provide stereoscopic measurements to 
  study the Sun and the nature of coronal mass ejections (CMEs).

 OBJECTIVES:
  * Understand the causes and mechanisms of coronal mass ejection (CME) 
     initiation.
  * Characterize the propagation of CMEs through the heliosphere.
  * Discover the mechanisms and sites of energetic particle acceleration in 
     the low corona and the interplanetary medium.
  * Improve the determination of the structure of the ambient solar wind. 

 SPACECRAFT:
  Launch (Delta II 7925-10L) = October 26, 2006 @ 1:53 UTC
  Mission end                = 2 year nominal mission after launch
  Dimensions                 = 1.14m x 1.22m (launch), 6.47m x 2.03m (deployed)
  Launch Mass                = 620 kg  (includes propellant)
  Power consumption          = 475 watts
  Data downlink              = 720 kilobits/sec
  Memory                     = 1 GB
  Attitude                   = control within 7", knowledge within 0.1"

 INSTRUMENTS (4 packages on each spacecraft):
  * Sun Earth Connection Coronal and Heliospheric Investigation (SECCHI)
  * STEREO/WAVES (SWAVES) radio burst tracker
  * In-situ Measurements of Particles and CME Transients (IMPACT)
  * PLAsma and SupraThermal Ion Composition (PLASTIC) 

 ORBIT:
  STEREO-A and STEREO-B will be launched together, then separate. The Moon's 
  gravity will be used to redirect the observatories to their appropriate 
  orbits, something the launch vehicle alone is not able to do.

  For the first three months after launch, the two observatories will fly in 
  highly elliptical orbits extending from very close to Earth to just beyond 
  the Moon's orbit. STEREO Mission Operations personnel at APL will 
  synchronize spacecraft orbits so that about two months after launch they 
  encounter the Moon, at which time one of them is close enough to use the 
  Moon's gravity to redirect it to a position "ahead"/leading the Earth. 
  Approximately one month later, the second observatory will encounter the 
  Moon again and be redirected to its orbit "behind"/trailing the Earth. 

 POST-LAUNCH SPACECRAFT TRAJECTORY: 
  Fit to tracking data until 2021-Nov-26, planning prediction thereafter.

  Trajectory name                    Start        Stop
  ---------------------------------  -----------  -----------
  ahead_2006_350_01.depm             2006-Oct-26  2006-Dec-15
  ahead_2008_037_01.depm             2006-Dec-15  2008-Jan-21
  ahead_2010_208_01.depm             2008-Jan-21  2010-Jul-16
  ahead_2012_138_01.depm             2010-Jul-16  2012-Apr-18
  ahead_2013_130_01.depm             2012-Apr-18  2013-Apr-25
  ahead_2015_219_01.depm             2013-Apr-25  2015-Jul-23
  ahead_2018_019_01.depm             2015-Jul-23  2017-Dec-21
  ahead_2020_224_01.depm             2017-Dec-21  2020-Aug-11
  ahead_2021_327_07.depm             2020-Aug-11  2021-Nov-23
  ahead_2021_327_07.epm              2021-Nov-23  2022-Mar-17
*******************************************************************************


*******************************************************************************
Ephemeris / WWW_USER Wed Feb  2 11:12:26 2022 Pasadena, USA      / Horizons    
*******************************************************************************
Target body name: STEREO-A (spacecraft) (-234)    {source: STEREO-A_merged}
Center body name: Sun (10)                        {source: DE441}
Center-site name: BODYCENTRIC
*******************************************************************************
Start time      : A.D. 2015-Jan-01 00:09:00.0000 UT      
Stop  time      : A.D. 2015-Dec-31 23:59:00.0000 UT      
Step-size       : 40 minutes
*******************************************************************************
Target pole/equ : No model available
Target radii    : (unavailable)                                                
Center geodetic : 0.00000000,0.00000000,0.0000000 {E-lon(deg),Lat(deg),Alt(km)}
Center cylindric: 0.00000000,0.00000000,0.0000000 {E-lon(deg),Dxy(km),Dz(km)}
Center pole/equ : IAU_SUN                         {East-longitude positive}
Center radii    : 696000.0 x 696000.0 x 696000.0 k{Equator, meridian, pole}    
Target primary  : Earth
Vis. interferer : None
Rel. light bend : Sun                             {source: DE441}
Rel. lght bnd GM: 1.3271E+11 km^3/s^2                                          
Atmos refraction: NO (AIRLESS)
RA format       : HMS
Time format     : CAL 
EOP file        : eop.220131.p220426                                           
EOP coverage    : DATA-BASED 1962-JAN-20 TO 2022-JAN-31. PREDICTS-> 2022-APR-25
Units conversion: 1 au= 149597870.700 km, c= 299792.458 km/s, 1 day= 86400.0 s 
Table cut-offs 1: Elevation (-90.0deg=NO ),Airmass     n.a.    , Daylight (NO )
Table cut-offs 2: Solar elongation (  0.0,180.0=NO ),Local Hour Angle( 0.0=NO )
Table cut-offs 3: RA/DEC angular rate (     0.0=NO )                           
*******************************************************************************
 Date__(UT)__HR:MN     R.A._____(ICRF)_____DEC             delta      deldot
****************************************************************************
$$SOE
 2015-Sep-24 16:09     12 39 14.96 -04 16 46.6  0.96441778943422  -0.1573447
 2015-Sep-24 16:49     12 39 21.35 -04 17 27.2  0.96441526482198  -0.1573857
 2015-Sep-24 17:29     12 39 27.75 -04 18 07.7  0.96441273955235  -0.1574266
 2015-Sep-24 18:09     12 39 34.15 -04 18 48.2  0.96441021362603  -0.1574675
 2015-Sep-24 18:49     12 39 40.55 -04 19 28.8  0.96440768704367  -0.1575084
 2015-Sep-24 19:29     12 39 46.95 -04 20 09.3  0.96440515980580  -0.1575493
 2015-Sep-24 20:09     12 39 53.34 -04 20 49.8  0.96440263191315  -0.1575900
 2015-Sep-24 20:49     12 39 59.74 -04 21 30.3  0.96440010336630  -0.1576308
 2015-Sep-24 21:29     12 40 06.14 -04 22 10.9  0.96439757416586  -0.1576715
 2015-Sep-24 22:09     12 40 12.54 -04 22 51.4  0.96439504431259  -0.1577122
 2015-Sep-24 22:49     12 40 18.94 -04 23 31.9  0.96439251380701  -0.1577528
 2015-Sep-24 23:29     12 40 25.34 -04 24 12.4  0.96438998264977  -0.1577934
 2015-Sep-25 00:09     12 40 31.74 -04 24 52.9  0.96438745084148  -0.1578340
 2015-Sep-25 00:49     12 40 38.14 -04 25 33.4  0.96438491838292  -0.1578745
 2015-Sep-25 01:29     12 40 44.54 -04 26 13.9  0.96438238527451  -0.1579150
 2015-Sep-25 02:09     12 40 50.94 -04 26 54.4  0.96437985151712  -0.1579554
 2015-Sep-25 02:49     12 40 57.34 -04 27 34.9  0.96437731711117  -0.1579958
 2015-Sep-25 03:29     12 41 03.74 -04 28 15.4  0.96437478205741  -0.1580362
 2015-Sep-25 04:09     12 41 10.14 -04 28 55.9  0.96437224635643  -0.1580765
 2015-Sep-25 04:49     12 41 16.54 -04 29 36.3  0.96436971000889  -0.1581168
 2015-Sep-25 05:29     12 41 22.95 -04 30 16.8  0.96436717301546  -0.1581570
 2015-Sep-25 06:09     12 41 29.35 -04 30 57.3  0.96436463537670  -0.1581972
 2015-Sep-25 06:49     12 41 35.75 -04 31 37.8  0.96436209709336  -0.1582374
 2015-Sep-25 07:29     12 41 42.15 -04 32 18.2  0.96435955816592  -0.1582775
 2015-Sep-25 08:09     12 41 48.55 -04 32 58.7  0.96435701859516  -0.1583176
 2015-Sep-25 08:49     12 41 54.96 -04 33 39.2  0.96435447838157  -0.1583577
 2015-Sep-25 09:29     12 42 01.36 -04 34 19.6  0.96435193752593  -0.1583977
 2015-Sep-25 10:09     12 42 07.76 -04 35 00.1  0.96434939602883  -0.1584376
 2015-Sep-25 10:49     12 42 14.17 -04 35 40.5  0.96434685389090  -0.1584775
 2015-Sep-25 11:29     12 42 20.57 -04 36 21.0  0.96434431111276  -0.1585174
 2015-Sep-25 12:09     12 42 26.97 -04 37 01.4  0.96434176769506  -0.1585573
 2015-Sep-25 12:49     12 42 33.38 -04 37 41.9  0.96433922363848  -0.1585971
 2015-Sep-25 13:29     12 42 39.78 -04 38 22.3  0.96433667894356  -0.1586368
 2015-Sep-25 14:09     12 42 46.19 -04 39 02.8  0.96433413361104  -0.1586766
 2015-Sep-25 14:49     12 42 52.59 -04 39 43.2  0.96433158764149  -0.1587163
 2015-Sep-25 15:29     12 42 59.00 -04 40 23.6  0.96432904103561  -0.1587559
 2015-Sep-25 16:09     12 43 05.40 -04 41 04.0  0.96432649379401  -0.1587955
 2015-Sep-25 16:49     12 43 11.81 -04 41 44.5  0.96432394591729  -0.1588351
 2015-Sep-25 17:29     12 43 18.22 -04 42 24.9  0.96432139740607  -0.1588746
 2015-Sep-25 18:09     12 43 24.62 -04 43 05.3  0.96431884826110  -0.1589141
 2015-Sep-25 18:49     12 43 31.03 -04 43 45.7  0.96431629848300  -0.1589535
 2015-Sep-25 19:29     12 43 37.43 -04 44 26.1  0.96431374807233  -0.1589930
 2015-Sep-25 20:09     12 43 43.84 -04 45 06.5  0.96431119702975  -0.1590323
 2015-Sep-25 20:49     12 43 50.25 -04 45 46.9  0.96430864535594  -0.1590716
 2015-Sep-25 21:29     12 43 56.66 -04 46 27.3  0.96430609305150  -0.1591109
 2015-Sep-25 22:09     12 44 03.06 -04 47 07.7  0.96430354011713  -0.1591502
 2015-Sep-25 22:49     12 44 09.47 -04 47 48.1  0.96430098655339  -0.1591894
 2015-Sep-25 23:29     12 44 15.88 -04 48 28.5  0.96429843236097  -0.1592286
 2015-Sep-26 00:09     12 44 22.29 -04 49 08.9  0.96429587754051  -0.1592677
 2015-Sep-26 00:49     12 44 28.70 -04 49 49.3  0.96429332209267  -0.1593068
 2015-Sep-26 01:29     12 44 35.10 -04 50 29.6  0.96429076601801  -0.1593458
 2015-Sep-26 02:09     12 44 41.51 -04 51 10.0  0.96428820931727  -0.1593848
 2015-Sep-26 02:49     12 44 47.92 -04 51 50.4  0.96428565199097  -0.1594238
 2015-Sep-26 03:29     12 44 54.33 -04 52 30.7  0.96428309403992  -0.1594627
 2015-Sep-26 04:09     12 45 00.74 -04 53 11.1  0.96428053546465  -0.1595016
 2015-Sep-26 04:49     12 45 07.15 -04 53 51.5  0.96427797626578  -0.1595405
 2015-Sep-26 05:29     12 45 13.56 -04 54 31.8  0.96427541644405  -0.1595793
 2015-Sep-26 06:09     12 45 19.97 -04 55 12.2  0.96427285600004  -0.1596180
 2015-Sep-26 06:49     12 45 26.38 -04 55 52.5  0.96427029493437  -0.1596568
 2015-Sep-26 07:29     12 45 32.79 -04 56 32.9  0.96426773324773  -0.1596955
 2015-Sep-26 08:09     12 45 39.21 -04 57 13.2  0.96426517094073  -0.1597341
 2015-Sep-26 08:49     12 45 45.62 -04 57 53.5  0.96426260801405  -0.1597727
 2015-Sep-26 09:29     12 45 52.03 -04 58 33.9  0.96426004446829  -0.1598113
 2015-Sep-26 10:09     12 45 58.44 -04 59 14.2  0.96425748030413  -0.1598498
